NORAD_CAT_ID,OBJECT_NAME,OBJECT_TYPE,EPOCH,MEAN_MOTION,ECCENTRICITY,INCLINATION,RA_OF_ASC_NODE,ARG_OF_PERICENTER,MEAN_ANOMALY,BSTAR,MEAN_MOTION_DOT,MEAN_MOTION_DDOT,TLE_LINE0,TLE_LINE1,TLE_LINE2,SEMIMAJOR_AXIS,PERIOD,APOGEE,PERIGEE,DECAYED
52122.0,STARLINK-3726,PAYLOAD,2022-08-09 14:00:01,15.08862799,0.0002213,53.2173,191.4225,55.4213,142.97899999999996,-0.0022893,-0.00036562,0.0,0 STARLINK-3726,1 52122U 22029AL  22221.58334491 -.00036562  00000-0 -22893-2 0  9993,2 52122  53.2173 191.4225 0002213  55.4213 142.9790 15.08862799  1308,6917.811,95.436,541.207,538.145,0.0
52122.0,STARLINK-3726,PAYLOAD,2022-08-09 22:00:00,15.08842165,0.0002102,53.2176,189.9255,60.0129,149.9913,-0.00087071,-0.0001412,0.0,0 STARLINK-3726,1 52122U 22029AL  22221.91667824 -.00014120  00000-0 -87071-3 0  9995,2 52122  53.2176 189.9255 0002102  60.0129 149.9913 15.08842165  1300,6917.874,95.437,541.193,538.285,0.0
52122.0,STARLINK-3726,PAYLOAD,2022-08-10 14:00:01,15.08847157,0.0002129,53.2173,186.9335,56.2166,176.9571,-0.0019023,-0.00030443,0.0,0 STARLINK-3726,1 52122U 22029AL  22222.58334491 -.00030443  00000-0 -19023-2 0  9997,2 52122  53.2173 186.9335 0002129  56.2166 176.9571 15.08847157 23456,6917.859,95.437,541.196,538.251,0.0
52122.0,STARLINK-3726,PAYLOAD,2022-08-10 22:00:00,15.08838344,0.0002103,53.2175,185.4368,61.852,182.9075,0.00069528,0.00010794,0.0,0 STARLINK-3726,1 52122U 22029AL  22222.91667824  .00010794  00000-0  69528-3 0  9994,2 52122  53.2175 185.4368 0002103  61.8520 182.9075 15.08838344  1300,6917.885,95.438,541.205,538.2959999999998,0.0
52122.0,STARLINK-3726,PAYLOAD,2022-08-11 06:00:02,15.08828763,0.0002266999999999,53.2175,183.9421,56.3762,200.0474,0.0013105,0.00020624,0.0,0 STARLINK-3726,1 52122U 22029AL  22223.25002315  .00020624  00000-0  13105-2 0  9992,2 52122  53.2175 183.9421 0002267  56.3762 200.0474 15.08828763 23551,6917.915,95.438,541.3480000000002,538.211,0.0
52122.0,STARLINK-3726,PAYLOAD,2022-08-11 14:00:01,15.08858347,0.0002161,53.2174,182.4447,58.5734,209.3763,-0.0016940999999999,-0.00027163,0.0,0 STARLINK-3726,1 52122U 22029AL  22223.58334491 -.00027163  00000-0 -16941-2 0  9999,2 52122  53.2174 182.4447 0002161  58.5734 209.3763 15.08858347  1301,6917.824000000001,95.436,541.184,538.194,0.0
52122.0,STARLINK-3726,PAYLOAD,2022-08-12 06:00:00,15.08825466,0.0002236,53.2177,179.4534,56.8355,234.3408,0.0010818,0.00016964,0.0,0 STARLINK-3726,1 52122U 22029AL  22224.25001157  .00016964  00000-0  10818-2 0  9996,2 52122  53.2177 179.4534 0002236  56.8355 234.3408 15.08825466 23708,6917.925,95.438,541.337,538.243,0.0
52122.0,STARLINK-3726,PAYLOAD,2022-08-12 14:00:01,15.08850782,0.0002106999999999,53.2177,177.9558,58.6298,244.1334,-0.0010865,-0.00017544,0.0,0 STARLINK-3726,1 52122U 22029AL  22224.58334491 -.00017544  00000-0 -10865-2 0  9991,2 52122  53.2177 177.9558 0002107  58.6298 244.1334 15.08850782  1308,6917.847,95.437,541.17,538.255,0.0
52122.0,STARLINK-3726,PAYLOAD,2022-08-12 22:00:01,15.08861521,0.0002086999999999,53.2179,176.4591,62.7532,251.6617,-0.0012491,-0.00020125,0.0,0 STARLINK-3726,1 52122U 22029AL  22224.91668981 -.00020125  00000-0 -12491-2 0  9998,2 52122  53.2179 176.4591 0002087  62.7532 251.6617 15.08861521  1305,6917.815,95.436,541.123,538.236,0.0
52122.0,STARLINK-3726,PAYLOAD,2022-08-13 04:00:00,15.08840995,0.0002186999999999,53.2178,175.3384,56.8175,176.2485,-0.0017495,-0.00028025,0.0,0 STARLINK-3726,1 52122U 22029AL  22225.16667824 -.00028025  00000-0 -17495-2 0  9997,2 52122  53.2178 175.3384 0002187  56.8175 176.2485 15.08840995 23840,6917.877,95.437,541.255,538.229,0.0
52122.0,STARLINK-3726,PAYLOAD,2022-08-13 14:00:01,15.08827501,0.0002021999999999,53.2181,173.4669,56.9421,280.6044,-0.0025612,-0.00040806,0.0,0 STARLINK-3726,1 52122U 22029AL  22225.58334491 -.00040806  00000-0 -25612-2 0  9995,2 52122  53.2181 173.4669 0002022  56.9421 280.6044 15.08827501  1308,6917.919,95.438,541.182,538.385,0.0
52122.0,STARLINK-3726,PAYLOAD,2022-08-13 22:00:00,15.08819777,0.0002017,53.2184,171.9705,60.319,288.7846,-0.00015177,-2.701e-05,0.0,0 STARLINK-3726,1 52122U 22029AL  22225.91667824 -.00002701  00000-0 -15177-3 0  9999,2 52122  53.2184 171.9705 0002017  60.3190 288.7846 15.08819777  1306,6917.941999999999,95.439,541.203,538.4119999999998,0.0
52122.0,STARLINK-3726,PAYLOAD,2022-08-14 06:00:02,15.08786913,0.0002198999999999,53.2183,170.4791,55.0437,305.697,0.004188,0.00066901,0.0,0 STARLINK-3726,1 52122U 22029AL  22226.25002315  .00066901  00000-0  41880-2 0  9994,2 52122  53.2183 170.4791 0002199  55.0437 305.6970 15.08786913 24015,6918.043000000002,95.441,541.429,538.386,0.0
52122.0,STARLINK-3726,PAYLOAD,2022-08-14 14:00:01,15.08829876,0.0002070999999999,53.2186,168.9782,58.1972,314.0521,-0.00014594,-2.61e-05,0.0,0 STARLINK-3726,1 52122U 22029AL  22226.58334491 -.00002610  00000-0 -14594-3 0  9995,2 52122  53.2186 168.9782 0002071  58.1972 314.0521 15.08829876  1306,6917.911,95.438,541.2090000000002,538.344,0.0
52122.0,STARLINK-3726,PAYLOAD,2022-08-14 22:00:00,15.08848661,0.0002103,53.2189,167.4819,61.0452,322.7795,-0.00040301,-6.698e-05,0.0,0 STARLINK-3726,1 52122U 22029AL  22226.91667824 -.00006698  00000-0 -40301-3 0  9996,2 52122  53.2189 167.4819 0002103  61.0452 322.7795 15.08848661 24112,6917.854,95.437,541.174,538.264,0.0
52122.0,STARLINK-3726,PAYLOAD,2022-08-15 14:00:01,15.08856279,0.0002089999999999,53.2189,164.4893,59.5881,347.4359,-0.0015155,-0.00024338,0.0,0 STARLINK-3726,1 52122U 22029AL  22227.58334491 -.00024338  00000-0 -15155-2 0  9990,2 52122  53.2189 164.4893 0002090  59.5881 347.4359 15.08856279  1304,6917.831,95.437,541.141,538.25,0.0
52122.0,STARLINK-3726,PAYLOAD,2022-08-15 22:00:00,15.08852072,0.0002065,53.219,162.9932,61.1472,357.4811,-0.0014024,-0.00022546,0.0,0 STARLINK-3726,1 52122U 22029AL  22227.91667824 -.00022546  00000-0 -14024-2 0  9999,2 52122  53.2190 162.9932 0002065  61.1472 357.4811 15.08852072  1301,6917.843000000003,95.437,541.137,538.28,0.0
52122.0,STARLINK-3726,PAYLOAD,2022-08-16 06:00:02,15.08814647,0.0002171,53.2189,161.4984,55.7912,14.5024,0.003146,0.00050103,0.0,0 STARLINK-3726,1 52122U 22029AL  22228.25002315  .00050103  00000-0  31460-2 0  9996,2 52122  53.2189 161.4984 0002171  55.7912  14.5024 15.08814647 24315,6917.958000000001,95.439,541.325,538.321,0.0
52122.0,STARLINK-3726,PAYLOAD,2022-08-16 14:00:01,15.08838646,0.0002008999999999,53.2189,160.0004,60.5863,21.2358,0.00061402,9.497e-05,0.0,0 STARLINK-3726,1 52122U 22029AL  22228.58334491  .00009497  00000-0  61402-3 0  9995,2 52122  53.2189 160.0004 0002009  60.5863  21.2358 15.08838646  1306,6917.885,95.438,541.139,538.36,0.0
52122.0,STARLINK-3726,PAYLOAD,2022-08-16 22:00:00,15.08868284,0.0002002,53.2189,158.5045,61.6925,31.7261,-0.0034123,-0.00054229,0.0,0 STARLINK-3726,1 52122U 22029AL  22228.91667824 -.00054229  00000-0 -34123-2 0  9995,2 52122  53.2189 158.5045 0002002  61.6925  31.7261 15.08868284  1307,6917.794,95.436,541.044,538.274,0.0
52122.0,STARLINK-3726,PAYLOAD,2022-08-17 14:00:01,15.08826146,0.0001905,53.2184,155.5115,61.4562,55.1557,0.0013655999999999,0.00021504,0.0,0 STARLINK-3726,1 52122U 22029AL  22229.58334491  .00021504  00000-0  13656-2 0  9996,2 52122  53.2184 155.5115 0001905  61.4562  55.1557 15.08826146 24510,6917.9230000000025,95.438,541.106,538.47,0.0
52122.0,STARLINK-3726,PAYLOAD,2022-08-17 16:00:00,15.08820205,0.0001896,53.2182,155.1371,62.6258,146.8855,0.0024383,0.0003871,0.0,0 STARLINK-3726,1 52122U 22029AL  22229.66667824  .00038710  00000-0  24383-2 0  9990,2 52122  53.2182 155.1371 0001896  62.6258 146.8855 15.08820205  1303,6917.941,95.439,541.118,538.494,0.0
52122.0,STARLINK-3726,PAYLOAD,2022-08-18 08:00:01,15.08837618,0.0001935,53.2177,152.1462,56.5571,176.1147,0.00081136,0.00012648,0.0,0 STARLINK-3726,1 52122U 22029AL  22230.33334491  .00012648  00000-0  81136-3 0  9999,2 52122  53.2177 152.1462 0001935  56.5571 176.1147 15.08837618 24625,6917.888000000001,95.438,541.091,538.414,0.0
52122.0,STARLINK-3726,PAYLOAD,2022-08-18 14:00:01,15.08829525,0.0001791,53.2178,151.0227,62.6169,88.7579,0.0024378,0.00038712,0.0,0 STARLINK-3726,1 52122U 22029AL  22230.58334491  .00038712  00000-0  24378-2 0  9990,2 52122  53.2178 151.0227 0001791  62.6169  88.7579 15.08829525  1309,6917.9119999999975,95.438,541.016,538.538,0.0
52122.0,STARLINK-3726,PAYLOAD,2022-08-18 22:00:00,15.08873075,0.0001851999999999,53.2179,149.52700000000004,63.8833,99.0866,-0.00080937,-0.00013158,0.0,0 STARLINK-3726,1 52122U 22029AL  22230.91667824 -.00013158  00000-0 -80937-3 0  9999,2 52122  53.2179 149.5270 0001852  63.8833  99.0866 15.08873075  1302,6917.779,95.435,540.925,538.363,0.0
52122.0,STARLINK-3726,PAYLOAD,2022-08-19 14:00:01,15.08806375,0.0001635,53.2174,146.5336,60.3058,125.9002,0.0011107,0.00017417,0.0,0 STARLINK-3726,1 52122U 22029AL  22231.58334491  .00017417  00000-0  11107-2 0  9996,2 52122  53.2174 146.5336 0001635  60.3058 125.9002 15.08806375 24818,6917.983,95.44,540.979,538.717,0.0
52122.0,STARLINK-3726,PAYLOAD,2022-08-19 22:00:00,15.08829562,0.0001721999999999,53.2175,145.0382,60.1665,137.5936,-0.0012449,-0.0002004,0.0,0 STARLINK-3726,1 52122U 22029AL  22231.91667824 -.00020040  00000-0 -12449-2 0  9990,2 52122  53.2175 145.0382 0001722  60.1665 137.5936 15.08829562  1300,6917.9119999999975,95.438,540.969,538.586,0.0
52122.0,STARLINK-3726,PAYLOAD,2022-08-20 14:00:01,15.08812109,0.0001692,53.2174,142.0447,60.4463,160.4719,0.0027873,0.00044317,0.0,0 STARLINK-3726,1 52122U 22029AL  22232.58334491  .00044317  00000-0  27873-2 0  9993,2 52122  53.2174 142.0447 0001692  60.4463 160.4719 15.08812109 24963,6917.965999999999,95.439,541.001,538.66,0.0
52122.0,STARLINK-3726,PAYLOAD,2022-08-20 22:00:00,15.08852516,0.0001816,53.2176,140.5494,60.114,172.3806,-0.0011209,-0.00018089,0.0,0 STARLINK-3726,1 52122U 22029AL  22232.91667824 -.00018089  00000-0 -11209-2 0  9994,2 52122  53.2176 140.5494 0001816  60.1140 172.3806 15.08852516  1305,6917.842,95.437,540.9630000000002,538.451,0.0
